NORAD_CAT_ID,OBJECT_NAME,OBJECT_TYPE,EPOCH,MEAN_MOTION,ECCENTRICITY,INCLINATION,RA_OF_ASC_NODE,ARG_OF_PERICENTER,MEAN_ANOMALY,BSTAR,MEAN_MOTION_DOT,MEAN_MOTION_DDOT,TLE_LINE0,TLE_LINE1,TLE_LINE2,SEMIMAJOR_AXIS,PERIOD,APOGEE,PERIGEE,DECAYED
52111.0,STARLINK-3708,PAYLOAD,2022-04-27 04:00:00,15.73195351,0.0001034,53.2161,311.2117,103.5935,350.9369,-0.0028158,-0.00378441,0.0,0 STARLINK-3708,1 52111U 22029Z   22117.16667824 -.00378441  00000-0 -28158-2 0  9993,2 52111  53.2161 311.2117 0001034 103.5935 350.9369 15.73195351  7383,6727.908,91.533,350.469,349.07800000000015,0.0
52111.0,STARLINK-3708,PAYLOAD,2022-04-27 14:00:01,15.729795,0.0001173,53.2178,309.1446,110.2401,185.2665,-0.0056326,-0.00719888,0.0,0 STARLINK-3708,1 52111U 22029Z   22117.58335648 -.00719888  00000-0 -56326-2 0  9997,2 52111  53.2178 309.1446 0001173 110.2401 185.2665 15.72979500  3704,6728.524,91.546,351.17800000000005,349.6,0.0
52111.0,STARLINK-3708,PAYLOAD,2022-04-27 20:00:01,15.72596189,0.0001184,53.2176,307.9097,99.015,172.7458,-0.0057256999999999,-0.00719837,0.0,0 STARLINK-3708,1 52111U 22029Z   22117.83334491 -.00719837  00000-0 -57257-2 0  9998,2 52111  53.2176 307.9097 0001184  99.0150 172.7458 15.72596189  7485,6729.6169999999975,91.568,352.279,350.685,0.0
52111.0,STARLINK-3708,PAYLOAD,2022-04-28 14:00:01,15.71447915,0.0001214,53.2176,304.2024,98.9074,99.7467,-0.0059888999999999,-0.00717156,0.0,0 STARLINK-3708,1 52111U 22029Z   22118.58334491 -.00717156  00000-0 -59889-2 0  9996,2 52111  53.2176 304.2024 0001214  98.9074  99.7467 15.71447915  3702,6732.895,91.635,355.577,353.9430000000001,0.0
52111.0,STARLINK-3708,PAYLOAD,2022-04-28 20:00:01,15.710661800000002,0.0001213,53.2173,302.9702,94.1263,79.4679,-0.0061008999999999,-0.00718708,0.0,0 STARLINK-3708,1 52111U 22029Z   22118.83334491 -.00718708  00000-0 -61009-2 0  9995,2 52111  53.2173 302.9702 0001213  94.1263  79.4679 15.71066180  7642,6733.986,91.658,356.668,355.034,0.0
52111.0,STARLINK-3708,PAYLOAD,2022-04-29 14:00:01,15.6991868,0.0001053,53.2176,299.2715,95.6836,0.6673,-0.0063982,-0.00718199,0.0,0 STARLINK-3708,1 52111U 22029Z   22119.58334491 -.00718199  00000-0 -63982-2 0  9994,2 52111  53.2176 299.2715 0001053  95.6836   0.6673 15.69918680  3702,6737.267,91.724,359.841,358.422,0.0
52111.0,STARLINK-3708,PAYLOAD,2022-04-29 20:00:01,15.69537466,0.0001101,53.2176,298.0420000000001,103.2393,326.6727,-0.0065206,-0.00720201,0.0,0 STARLINK-3708,1 52111U 22029Z   22119.83334491 -.00720201  00000-0 -65206-2 0  9990,2 52111  53.2176 298.0420 0001101 103.2393 326.6727 15.69537466  7805,6738.358,91.747,360.964,359.481,0.0
52111.0,STARLINK-3708,PAYLOAD,2022-04-29 22:00:00,15.69404675,0.0001187,53.2176,297.6319,101.8541,79.1708,-0.0064711,-0.00711554,0.0,0 STARLINK-3708,1 52111U 22029Z   22119.91667824 -.00711554  00000-0 -64711-2 0  9999,2 52111  53.2176 297.6319 0001187 101.8541  79.1708 15.69404675  3697,6738.738,91.755,361.403,359.80300000000005,0.0
52111.0,STARLINK-3708,PAYLOAD,2022-04-30 14:00:01,15.68390206,0.0001047,53.2176,294.3516,96.9322,251.6002,-0.0068402,-0.00720331,0.0,0 STARLINK-3708,1 52111U 22029Z   22120.58334491 -.00720331  00000-0 -68402-2 0  9999,2 52111  53.2176 294.3516 0001047  96.9322 251.6002 15.68390206  3671,6741.643,91.814,364.214,362.802,0.0
52111.0,STARLINK-3708,PAYLOAD,2022-04-30 20:00:01,15.68007302,0.0001129,53.2174,293.1249,98.305,222.4104,-0.0069436,-0.00719825,0.0,0 STARLINK-3708,1 52111U 22029Z   22120.83334491 -.00719825  00000-0 -69436-2 0  9991,2 52111  53.2174 293.1249 0001129  98.3050 222.4104 15.68007302  7950,6742.741,91.836,365.367,363.844,0.0
52111.0,STARLINK-3708,PAYLOAD,2022-04-30 22:00:00,15.67875114,0.0001012,53.2173,292.7158,90.4607,340.9077,-0.006898,-0.00711886,0.0,0 STARLINK-3708,1 52111U 22029Z   22120.91667824 -.00711886  00000-0 -68980-2 0  9991,2 52111  53.2173 292.7158 0001012  90.4607 340.9077 15.67875114  3702,6743.12,91.844,365.667,364.302,0.0
52111.0,STARLINK-3708,PAYLOAD,2022-05-01 14:00:01,15.66858114,0.0001227,53.2176,289.4429,91.6883,143.5119,-0.0072396999999999,-0.00716333,0.0,0 STARLINK-3708,1 52111U 22029Z   22121.58334491 -.00716333  00000-0 -72397-2 0  9995,2 52111  53.2176 289.4429 0001227  91.6883 143.5119 15.66858114  3687,6746.0369999999975,91.904,368.73,367.074,0.0
52111.0,STARLINK-3708,PAYLOAD,2022-05-01 20:00:01,15.66475642,0.0001121,53.2176,288.219,92.6952,113.309,-0.0073504999999999,-0.00716064,0.0,0 STARLINK-3708,1 52111U 22029Z   22121.83334491 -.00716064  00000-0 -73505-2 0  9996,2 52111  53.2176 288.2190 0001121  92.6952 113.3090 15.66475642  8117,6747.135,91.926,369.757,368.244,0.0
52111.0,STARLINK-3708,PAYLOAD,2022-05-01 22:00:01,15.66346561,0.0001177,53.2175,287.8106,95.9992,220.2626,-0.0073587,-0.00713364,0.0,0 STARLINK-3708,1 52111U 22029Z   22121.91668981 -.00713364  00000-0 -73587-2 0  9999,2 52111  53.2175 287.8106 0001177  95.9992 220.2626 15.66346561  3709,6747.505999999999,91.934,370.165,368.577,0.0
52111.0,STARLINK-3708,PAYLOAD,2022-05-02 14:00:01,15.65328655,0.0001149,53.2176,284.5456,70.6978,45.654,-0.0077098999999999,-0.00716967,0.0,0 STARLINK-3708,1 52111U 22029Z   22122.58334491 -.00716967  00000-0 -77099-2 0  9993,2 52111  53.2176 284.5456 0001149  70.6978  45.6540 15.65328655  3702,6750.431,91.993,373.071,371.52,0.0
52111.0,STARLINK-3708,PAYLOAD,2022-05-02 20:00:01,15.64945274,0.0001098,53.2175,283.3242,77.0307,8.7469,-0.0078111,-0.00715406,0.0,0 STARLINK-3708,1 52111U 22029Z   22122.83334491 -.00715406  00000-0 -78111-2 0  9994,2 52111  53.2175 283.3242 0001098  77.0307   8.7469 15.64945274  8279,6751.533,92.016,374.139,372.657,0.0
52111.0,STARLINK-3708,PAYLOAD,2022-05-02 22:00:01,15.64814304,0.0001204,53.2172,282.9167,79.0256,116.5505,-0.0077771,-0.00709135,0.0,0 STARLINK-3708,1 52111U 22029Z   22122.91668981 -.00709135  00000-0 -77771-2 0  9990,2 52111  53.2172 282.9167 0001204  79.0256 116.5505 15.64814304  3702,6751.91,92.024,374.588,372.962,0.0
52111.0,STARLINK-3708,PAYLOAD,2022-05-03 14:00:01,15.6379968,0.000107,53.2175,279.6591,83.3932,268.5949,-0.0082097,-0.00718067,0.0,0 STARLINK-3708,1 52111U 22029Z   22123.58334491 -.00718067  00000-0 -82097-2 0  9991,2 52111  53.2175 279.6591 0001070  83.3932 268.5949 15.63799680  3707,6754.83,92.083,377.418,375.972,0.0
52111.0,STARLINK-3708,PAYLOAD,2022-05-03 20:00:01,15.63416193,0.0001101,53.2174,278.4407,104.329,215.706,-0.0083115,-0.00716175,0.0,0 STARLINK-3708,1 52111U 22029Z   22123.83334491 -.00716175  00000-0 -83115-2 0  9999,2 52111  53.2174 278.4407 0001101 104.3290 215.7060 15.63416193  8422,6755.935,92.106,378.543,377.056,0.0
52111.0,STARLINK-3708,PAYLOAD,2022-05-03 22:00:00,15.63287093,0.0001015,53.2171,278.034,95.8909,333.4173,-0.008315,-0.00713083,0.0,0 STARLINK-3708,1 52111U 22029Z   22123.91667824 -.00713083  00000-0 -83150-2 0  9991,2 52111  53.2171 278.0340 0001015  95.8909 333.4173 15.63287093  3700,6756.307,92.114,378.857,377.486,0.0
52111.0,STARLINK-3708,PAYLOAD,2022-05-04 14:00:01,15.6226709,0.0001289,53.2177,274.7839,71.4721,150.6387,-0.0086568,-0.00713212,0.0,0 STARLINK-3708,1 52111U 22029Z   22124.58334491 -.00713212  00000-0 -86568-2 0  9996,2 52111  53.2177 274.7839 0001289  71.4721 150.6387 15.62267090  3707,6759.246999999999,92.174,381.983,380.241,0.0
52111.0,STARLINK-3708,PAYLOAD,2022-05-04 20:00:01,15.61882329,0.0001219,53.2176,273.5679,88.4516,100.3931,-0.0087379,-0.0070944999999999,0.0,0 STARLINK-3708,1 52111U 22029Z   22124.83335648 -.00709450  00000-0 -87379-2 0  9999,2 52111  53.2176 273.5679 0001219  88.4516 100.3931 15.61882329  8583,6760.357,92.196,383.046,381.398,0.0
52111.0,STARLINK-3708,PAYLOAD,2022-05-04 22:00:01,15.61757871,0.00011,53.2173,273.1621,95.5025,202.1538,-0.0088338,-0.00713383,0.0,0 STARLINK-3708,1 52111U 22029Z   22124.91668981 -.00713383  00000-0 -88338-2 0  9993,2 52111  53.2173 273.1621 0001100  95.5025 202.1538 15.61757871  3702,6760.715999999999,92.204,383.325,381.838,0.0
52111.0,STARLINK-3708,PAYLOAD,2022-05-05 14:00:01,15.60738427,0.0001240999999999,53.2175,269.92,57.1041,29.6126,-0.0092161,-0.00715196,0.0,0 STARLINK-3708,1 52111U 22029Z   22125.58334491 -.00715196  00000-0 -92161-2 0  9996,2 52111  53.2175 269.9200 0001241  57.1041  29.6126 15.60738427  3719,6763.66,92.264,386.364,384.685,0.0
52111.0,STARLINK-3708,PAYLOAD,2022-05-05 20:00:01,15.60353705,0.0001043,53.2173,268.7067,82.9239,329.1479,-0.0093006,-0.00711396,0.0,0 STARLINK-3708,1 52111U 22029Z   22125.83335648 -.00711396  00000-0 -93006-2 0  9996,2 52111  53.2173 268.7067 0001043  82.9239 329.1479 15.60353705  8749,6764.772,92.287,387.342,385.931,0.0
52111.0,STARLINK-3708,PAYLOAD,2022-05-05 22:00:00,15.60228406,0.0001181,53.2171,268.3018,80.6528,79.7067,-0.0093911,-0.00714595,0.0,0 STARLINK-3708,1 52111U 22029Z   22125.91667824 -.00714595  00000-0 -93911-2 0  9998,2 52111  53.2171 268.3018 0001181  80.6528  79.7067 15.60228406  3697,6765.134,92.294,387.798,386.2,0.0
52111.0,STARLINK-3708,PAYLOAD,2022-05-06 14:00:01,15.59208254,0.0001240999999999,53.2174,265.067,65.4001,240.4081,-0.0097597,-0.00714159,0.0,0 STARLINK-3708,1 52111U 22029Z   22126.58334491 -.00714159  00000-0 -97597-2 0  9993,2 52111  53.2174 265.0670 0001241  65.4001 240.4081 15.59208254  3726,6768.084,92.355,390.789,389.109,0.0
52111.0,STARLINK-3708,PAYLOAD,2022-05-06 20:00:01,15.58822921,0.0001296,53.2175,263.8563,62.3273,207.3924,-0.0098284,-0.0070914,0.0,0 STARLINK-3708,1 52111U 22029Z   22126.83334491 -.00709140  00000-0 -98284-2 0  9999,2 52111  53.2175 263.8563 0001296  62.3273 207.3924 15.58822921  8894,6769.2,92.377,391.942,390.187,0.0
52111.0,STARLINK-3708,PAYLOAD,2022-05-07 14:00:01,15.57676628,0.0001466,53.2175,260.2251,53.2563,106.129,-0.010302,-0.00711487,0.0,0 STARLINK-3708,1 52111U 22029Z   22127.58334491 -.00711487  00000-0 -10302-1 0  9993,2 52111  53.2175 260.2251 0001466  53.2563 106.1290 15.57676628  3706,6772.52,92.445,395.378,393.392,0.0
